{"type": "FeatureCollection", "features": [ {"type": "Feature", "properties": {"norad_id": 66516, "name": "STARLINK-35924", "group": "last-30-days", "lat": -39.08538828184569, "lon": 5.262379311531467, "alt_km": 419.79799392066525, "timestamp": "2025-12-10T16:57:10.415653+00:00", "meta": {"OBJECT_NAME": "STARLINK-35924", "OBJECT_ID": "2025-265A", "EPOCH": "2025-12-10T12:00:02.998944", "MEAN_MOTION": 15.50409941, "ECCENTRICITY": 0.0001151, "INCLINATION": 42.9998, "RA_OF_ASC_NODE": 67.1214, "ARG_OF_PERICENTER": 272.7906, "MEAN_ANOMALY": 306.8116, "EPHEMERIS_TYPE": 0, "CLASSIFICATION_TYPE": "U", "NORAD_CAT_ID": 66516, "ELEMENT_SET_NO": 999, "REV_AT_EPOCH": 461, "BSTAR": -0.028331, "MEAN_MOTION_DOT": -0.01496513, "MEAN_MOTION_DDOT": 0}, "tle": {"line1": "1 66516U 25265A   25344.50003471 -.01496513  00000+0 -28331-1 0  9990", "line2": "2 66516  42.9998  67.1214 0001151 272.7906 306.8116 15.50409941  4613"}}, "geometry": {"type": "Point", "coordinates": [5.262379311531467, -39.08538828184569]}}, {"type": "Feature", "properties": {"norad_id": 66517, "name": "STARLINK-35937", "group": "last-30-days", "lat": -38.27849671383405, "lon": 8.037840472064431, "alt_km": 417.29254598991247, "timestamp": "2025-12-10T16:57:10.415663+00:00", "meta": {"OBJECT_NAME": "STARLINK-35937", "OBJECT_ID": "2025-265B", "EPOCH": "2025-12-10T12:00:02.998944", "MEAN_MOTION": 15.50626308, "ECCENTRICITY": 0.0001414, "INCLINATION": 42.9997, "RA_OF_ASC_NODE": 67.1176, "ARG_OF_PERICENTER": 274.8601, "MEAN_ANOMALY": 306.6681, "EPHEMERIS_TYPE": 0, "CLASSIFICATION_TYPE": "U", "NORAD_CAT_ID": 66517, "ELEMENT_SET_NO": 999, "REV_AT_EPOCH": 463, "BSTAR": -0.0021974, "MEAN_MOTION_DOT": -0.00127392, "MEAN_MOTION_DDOT": 0}, "tle": {"line1": "1 66517U 25265B   25344.50003471 -.00127392  00000+0 -21974-2 0  9993", "line2": "2 66517  42.9997  67.1176 0001414 274.8601 306.6681 15.50626308  4632"}}, "geometry": {"type": "Point", "coordinates": [8.037840472064431, -38.27849671383405]}}, {"type": "Feature", "properties": {"norad_id": 66518, "name": "STARLINK-35962", "group": "last-30-days", "lat": -37.559720433888074, "lon": 10.293461737942687, "alt_km": 417.2714275729322, "timestamp": "2025-12-10T16:57:10.415675+00:00", "meta": {"OBJECT_NAME": "STARLINK-35962", "OBJECT_ID": "2025-265C", "EPOCH": "2025-12-10T12:00:02.998944", "MEAN_MOTION": 15.50652456, "ECCENTRICITY": 0.0001355, "INCLINATION": 42.9996, "RA_OF_ASC_NODE": 67.1132, "ARG_OF_PERICENTER": 276.777, "MEAN_ANOMALY": 306.6641, "EPHEMERIS_TYPE": 0, "CLASSIFICATION_TYPE": "U", "NORAD_CAT_ID": 66518, "ELEMENT_SET_NO": 999, "REV_AT_EPOCH": 463, "BSTAR": -0.0029936, "MEAN_MOTION_DOT": -0.00172597, "MEAN_MOTION_DDOT": 0}, "tle": {"line1": "1 66518U 25265C   25344.50003471 -.00172597  00000+0 -29936-2 0  9997", "line2": "2 66518  42.9996  67.1132 0001355 276.7770 306.6641 15.50652456  4635"}}, "geometry": {"type": "Point", "coordinates": [10.293461737942687, -37.559720433888074]}}, {"type": "Feature", "properties": {"norad_id": 66519, "name": "STARLINK-35931", "group": "last-30-days", "lat": -36.8027523388316, "lon": 12.491651513218132, "alt_km": 416.9658836215194, "timestamp": "2025-12-10T16:57:10.415685+00:00", "meta": {"OBJECT_NAME": "STARLINK-35931", "OBJECT_ID": "2025-265D", "EPOCH": "2025-12-10T12:00:02.998944", "MEAN_MOTION": 15.50628515, "ECCENTRICITY": 0.0001815, "INCLINATION": 42.9995, "RA_OF_ASC_NODE": 67.1071, "ARG_OF_PERICENTER": 277.8154, "MEAN_ANOMALY": 307.55, "EPHEMERIS_TYPE": 0, "CLASSIFICATION_TYPE": "U", "NORAD_CAT_ID": 66519, "ELEMENT_SET_NO": 999, "REV_AT_EPOCH": 463, "BSTAR": -0.0022664, "MEAN_MOTION_DOT": -0.00131332, "MEAN_MOTION_DDOT": 0}, "tle": {"line1": "1 66519U 25265D   25344.50003471 -.00131332  00000+0 -22664-2 0  9991", "line2": "2 66519  42.9995  67.1071 0001815 277.8154 307.5500 15.50628515  4639"}}, "geometry": {"type": "Point", "coordinates": [12.491651513218132, -36.8027523388316]}}, {"type": "Feature", "properties": {"norad_id": 66520, "name": "STARLINK-35952", "group": "last-30-days", "lat": -36.00697750267264, "lon": 14.644533721405407, "alt_km": 417.19542663018547, "timestamp": "2025-12-10T16:57:10.415695+00:00", "meta": {"OBJECT_NAME": "STARLINK-35952", "OBJECT_ID": "2025-265E", "EPOCH": "2025-12-10T12:00:02.998944", "MEAN_MOTION": 15.50632315, "ECCENTRICITY": 0.0001369, "INCLINATION": 42.9997, "RA_OF_ASC_NODE": 67.102, "ARG_OF_PERICENTER": 282.5078, "MEAN_ANOMALY": 304.7715, "EPHEMERIS_TYPE": 0, "CLASSIFICATION_TYPE": "U", "NORAD_CAT_ID": 66520, "ELEMENT_SET_NO": 999, "REV_AT_EPOCH": 463, "BSTAR": -0.0024094, "MEAN_MOTION_DOT": -0.00139465, "MEAN_MOTION_DDOT": 0}, "tle": {"line1": "1 66520U 25265E   25344.50003471 -.00139465  00000+0 -24094-2 0  9997", "line2": "2 66520  42.9997  67.1020 0001369 282.5078 304.7715 15.50632315  4639"}}, "geometry": {"type": "Point", "coordinates": [14.644533721405407, -36.00697750267264]}}, {"type": "Feature", "properties": {"norad_id": 66521, "name": "STARLINK-35915", "group": "last-30-days", "lat": -35.167622294112405, "lon": 16.766797874143503, "alt_km": 417.3087928560626, "timestamp": "2025-12-10T16:57:10.415707+00:00", "meta": {"OBJECT_NAME": "STARLINK-35915", "OBJECT_ID": "2025-265F", "EPOCH": "2025-12-10T12:00:02.998944", "MEAN_MOTION": 15.5062406, "ECCENTRICITY": 0.0001307, "INCLINATION": 42.9996, "RA_OF_ASC_NODE": 67.0971, "ARG_OF_PERICENTER": 268.5293, "MEAN_ANOMALY": 320.6764, "EPHEMERIS_TYPE": 0, "CLASSIFICATION_TYPE": "U", "NORAD_CAT_ID": 66521, "ELEMENT_SET_NO": 999, "REV_AT_EPOCH": 463, "BSTAR": -0.0022572, "MEAN_MOTION_DOT": -0.00130779, "MEAN_MOTION_DDOT": 0}, "tle": {"line1": "1 66521U 25265F   25344.50003471 -.00130779  00000+0 -22572-2 0  9996", "line2": "2 66521  42.9996  67.0971 0001307 268.5293 320.6764 15.50624060  4637"}}, "geometry": {"type": "Point", "coordinates": [16.766797874143503, -35.167622294112405]}}, {"type": "Feature", "properties": {"norad_id": 66522, "name": "STARLINK-35946", "group": "last-30-days", "lat": -34.29738990483001, "lon": 18.832379534155987, "alt_km": 417.06982771139064, "timestamp": "2025-12-10T16:57:10.415717+00:00", "meta": {"OBJECT_NAME": "STARLINK-35946", "OBJECT_ID": "2025-265G", "EPOCH": "2025-12-10T12:00:02.998944", "MEAN_MOTION": 15.50637805, "ECCENTRICITY": 0.000151, "INCLINATION": 42.9995, "RA_OF_ASC_NODE": 67.0927, "ARG_OF_PERICENTER": 275.9467, "MEAN_ANOMALY": 315.1642, "EPHEMERIS_TYPE": 0, "CLASSIFICATION_TYPE": "U", "NORAD_CAT_ID": 66522, "ELEMENT_SET_NO": 999, "REV_AT_EPOCH": 463, "BSTAR": -0.002477, "MEAN_MOTION_DOT": -0.0014333, "MEAN_MOTION_DDOT": 0}, "tle": {"line1": "1 66522U 25265G   25344.50003471 -.00143330  00000+0 -24770-2 0  9996", "line2": "2 66522  42.9995  67.0927 0001510 275.9467 315.1642 15.50637805  4634"}}, "geometry": {"type": "Point", "coordinates": [18.832379534155987, -34.29738990483001]}}, {"type": "Feature", "properties": {"norad_id": 66523, "name": "STARLINK-35969", "group": "last-30-days", "lat": -33.36894463843789, "lon": 20.907798873501303, "alt_km": 416.7278860443257, "timestamp": "2025-12-10T16:57:10.415729+00:00", "meta": {"OBJECT_NAME": "STARLINK-35969", "OBJECT_ID": "2025-265H", "EPOCH": "2025-12-10T12:00:02.998944", "MEAN_MOTION": 15.50772568, "ECCENTRICITY": 0.0001806, "INCLINATION": 42.9998, "RA_OF_ASC_NODE": 67.0882, "ARG_OF_PERICENTER": 280.4676, "MEAN_ANOMALY": 312.5486, "EPHEMERIS_TYPE": 0, "CLASSIFICATION_TYPE": "U", "NORAD_CAT_ID": 66523, "ELEMENT_SET_NO": 999, "REV_AT_EPOCH": 463, "BSTAR": -0.0071861, "MEAN_MOTION_DOT": -0.00403708, "MEAN_MOTION_DDOT": 0}, "tle": {"line1": "1 66523U 25265H   25344.50003471 -.00403708  00000+0 -71861-2 0  9998", "line2": "2 66523  42.9998  67.0882 0001806 280.4676 312.5486 15.50772568  4632"}}, "geometry": {"type": "Point", "coordinates": [20.907798873501303, -33.36894463843789]}}, {"type": "Feature", "properties": {"norad_id": 66524, "name": "STARLINK-35687", "group": "last-30-days", "lat": -32.47880881657827, "lon": 22.78894089386633, "alt_km": 416.88475031214057, "timestamp": "2025-12-10T16:57:10.415739+00:00", "meta": {"OBJECT_NAME": "STARLINK-35687", "OBJECT_ID": "2025-265J", "EPOCH": "2025-12-10T12:00:02.998944", "MEAN_MOTION": 15.50578756, "ECCENTRICITY": 0.0001999, "INCLINATION": 42.9998, "RA_OF_ASC_NODE": 67.0832, "ARG_OF_PERICENTER": 285.8522, "MEAN_ANOMALY": 309.0987, "EPHEMERIS_TYPE": 0, "CLASSIFICATION_TYPE": "U", "NORAD_CAT_ID": 66524, "ELEMENT_SET_NO": 999, "REV_AT_EPOCH": 463, "BSTAR": -0.0040609, "MEAN_MOTION_DOT": -0.00231682, "MEAN_MOTION_DDOT": 0}, "tle": {"line1": "1 66524U 25265J   25344.50003471 -.00231682  00000+0 -40609-2 0  9995", "line2": "2 66524  42.9998  67.0832 0001999 285.8522 309.0987 15.50578756  4630"}}, "geometry": {"type": "Point", "coordinates": [22.78894089386633, -32.47880881657827]}}, {"type": "Feature", "properties": {"norad_id": 66525, "name": "STARLINK-35975", "group": "last-30-days", "lat": -31.48119787639101, "lon": 24.788279140767273, "alt_km": 417.07545475580173, "timestamp": "2025-12-10T16:57:10.415749+00:00", "meta": {"OBJECT_NAME": "STARLINK-35975", "OBJECT_ID": "2025-265K", "EPOCH": "2025-12-10T12:00:02.998944", "MEAN_MOTION": 15.50641484, "ECCENTRICITY": 0.0001372, "INCLINATION": 42.9995, "RA_OF_ASC_NODE": 67.0781, "ARG_OF_PERICENTER": 272.2219, "MEAN_ANOMALY": 324.6426, "EPHEMERIS_TYPE": 0, "CLASSIFICATION_TYPE": "U", "NORAD_CAT_ID": 66525, "ELEMENT_SET_NO": 999, "REV_AT_EPOCH": 463, "BSTAR": -0.002702, "MEAN_MOTION_DOT": -0.0015608, "MEAN_MOTION_DDOT": 0}, "tle": {"line1": "1 66525U 25265K   25344.50003471 -.00156080  00000+0 -27020-2 0  9996", "line2": "2 66525  42.9995  67.0781 0001372 272.2219 324.6426 15.50641484  4639"}}, "geometry": {"type": "Point", "coordinates": [24.788279140767273, -31.48119787639101]}}]}